{
  "norad_id": 48064,
  "name": "ONEWEB-0167",
  "history": [
    {
      "epoch": "2026-03-28T16:19:58.392480Z",
      "apogee_km": 1211.585526201572,
      "perigee_km": 1207.9278579262482,
      "latitude_deg": -3.896076798200385e-05,
      "longitude_deg": -94.83360708744834,
      "height_km": 1212.1878671986535,
      "semi_major_axis_km": 7587.89369206391,
      "eccentricity": 0.00024102,
      "inclination_deg": 87.9012,
      "raan_deg": 336.2572,
      "arg_perigee_deg": 75.5264,
      "mean_anomaly_deg": 284.6132,
      "mean_motion_rev_day": 13.13472261
    },
    {
      "epoch": "2026-03-29T05:07:50.488320Z",
      "apogee_km": 1211.5865526145017,
      "perigee_km": 1207.9200840126923,
      "latitude_deg": -2.001381635242701e-06,
      "longitude_deg": 72.56784109349697,
      "height_km": 1212.1830897331963,
      "semi_major_axis_km": 7587.890318313596,
      "eccentricity": 0.0002416,
      "inclination_deg": 87.9011,
      "raan_deg": 336.1513,
      "arg_perigee_deg": 75.5171,
      "mean_anomaly_deg": 284.6226,
      "mean_motion_rev_day": 13.13473137
    },
    {
      "epoch": "2026-03-30T03:04:11.252064Z",
      "apogee_km": 1211.566423668717,
      "perigee_km": 1207.9424467192694,
      "latitude_deg": -1.7031801913851796e-05,
      "longitude_deg": 102.39871862888961,
      "height_km": 1212.1710017144383,
      "semi_major_axis_km": 7587.891435193993,
      "eccentricity": 0.0002388,
      "inclination_deg": 87.901,
      "raan_deg": 335.9697,
      "arg_perigee_deg": 74.9095,
      "mean_anomaly_deg": 285.2298,
      "mean_motion_rev_day": 13.13472847
    },
    {
      "epoch": "2026-03-30T04:53:52.970784Z",
      "apogee_km": 1211.567369950857,
      "perigee_km": 1207.9402063962934,
      "latitude_deg": -2.6249460707983586e-05,
      "longitude_deg": 74.88470660772035,
      "height_km": 1212.1665235239745,
      "semi_major_axis_km": 7587.890788173575,
      "eccentricity": 0.00023901,
      "inclination_deg": 87.901,
      "raan_deg": 335.9546,
      "arg_perigee_deg": 74.7977,
      "mean_anomaly_deg": 285.3416,
      "mean_motion_rev_day": 13.13473015
    },
    {
      "epoch": "2026-03-30T10:22:58.143360Z",
      "apogee_km": 1211.5670571093897,
      "perigee_km": 1207.939286818174,
      "latitude_deg": -1.2666702635582933e-05,
      "longitude_deg": -7.657496539362843,
      "height_km": 1212.161502661858,
      "semi_major_axis_km": 7587.8901719637815,
      "eccentricity": 0.00023905,
      "inclination_deg": 87.901,
      "raan_deg": 335.9092,
      "arg_perigee_deg": 74.6561,
      "mean_anomaly_deg": 285.4832,
      "mean_motion_rev_day": 13.13473175
    },
    {
      "epoch": "2026-03-30T23:10:50.172672Z",
      "apogee_km": 1211.554496848741,
      "perigee_km": 1207.949035622577,
      "latitude_deg": 2.9232107803234656e-05,
      "longitude_deg": 159.7442304129922,
      "height_km": 1212.1444388813004,
      "semi_major_axis_km": 7587.888766235658,
      "eccentricity": 0.00023758,
      "inclination_deg": 87.9009,
      "raan_deg": 335.8033,
      "arg_perigee_deg": 74.0409,
      "mean_anomaly_deg": 286.0982,
      "mean_motion_rev_day": 13.1347354
    },
    {
      "epoch": "2026-03-31T10:09:00.481536Z",
      "apogee_km": 1211.5412444572676,
      "perigee_km": 1207.9597615558487,
      "latitude_deg": 3.0041507899126686e-05,
      "longitude_deg": -5.339925123288739,
      "height_km": 1212.1403673654659,
      "semi_major_axis_km": 7587.887503006558,
      "eccentricity": 0.000236,
      "inclination_deg": 87.9008,
      "raan_deg": 335.7126,
      "arg_perigee_deg": 73.8366,
      "mean_anomaly_deg": 286.3023,
      "mean_motion_rev_day": 13.13473868
    },
    {
      "epoch": "2026-04-01T04:25:57.819072Z",
      "apogee_km": 1211.5282348204737,
      "perigee_km": 1207.9837782392624,
      "latitude_deg": -8.895931076366597e-05,
      "longitude_deg": 79.51902572879136,
      "height_km": 1212.1260842472939,
      "semi_major_axis_km": 7587.893006529867,
      "eccentricity": 0.00023356,
      "inclination_deg": 87.9007,
      "raan_deg": 335.5613,
      "arg_perigee_deg": 72.9928,
      "mean_anomaly_deg": 287.1456,
      "mean_motion_rev_day": 13.13472439
    },
    {
      "epoch": "2026-04-02T15:10:10.966368Z",
      "apogee_km": 1211.5270440633512,
      "perigee_km": 1208.0061050466875,
      "latitude_deg": 2.8346967717258834e-05,
      "longitude_deg": -83.24974624301501,
      "height_km": 1212.1095065447066,
      "semi_major_axis_km": 7587.903574555019,
      "eccentricity": 0.00023201,
      "inclination_deg": 87.9004,
      "raan_deg": 335.2739,
      "arg_perigee_deg": 71.9482,
      "mean_anomaly_deg": 288.19,
      "mean_motion_rev_day": 13.13469695
    },
    {
      "epoch": "2026-04-03T16:45:55.380096Z",
      "apogee_km": 1211.539953257875,
      "perigee_km": 1208.0070221348024,
      "latitude_deg": -1.716443841320192e-05,
      "longitude_deg": -108.44798173339343,
      "height_km": 1212.106407914119,
      "semi_major_axis_km": 7587.910487696338,
      "eccentricity": 0.0002328,
      "inclination_deg": 87.9003,
      "raan_deg": 335.0619,
      "arg_perigee_deg": 71.67,
      "mean_anomaly_deg": 288.4682,
      "mean_motion_rev_day": 13.134679
    },
    {
      "epoch": "2026-04-04T05:33:47.601216Z",
      "apogee_km": 1211.5301015006416,
      "perigee_km": 1208.014016200952,
      "latitude_deg": 5.4472043929186904e-05,
      "longitude_deg": 58.95294405680978,
      "height_km": 1212.0976799867599,
      "semi_major_axis_km": 7587.909058850797,
      "eccentricity": 0.00023169,
      "inclination_deg": 87.9003,
      "raan_deg": 334.956,
      "arg_perigee_deg": 71.3276,
      "mean_anomaly_deg": 288.8105,
      "mean_motion_rev_day": 13.13468271
    },
    {
      "epoch": "2026-04-05T14:28:19.241472Z",
      "apogee_km": 1211.5094783449558,
      "perigee_km": 1208.0372505621817,
      "latitude_deg": 1.3768188910964387e-05,
      "longitude_deg": -76.30270957667271,
      "height_km": 1212.0971862492904,
      "semi_major_axis_km": 7587.910364453569,
      "eccentricity": 0.0002288,
      "inclination_deg": 87.9002,
      "raan_deg": 334.6837,
      "arg_perigee_deg": 71.0179,
      "mean_anomaly_deg": 289.1198,
      "mean_motion_rev_day": 13.13467932
    },
    {
      "epoch": "2026-04-05T16:18:00.993024Z",
      "apogee_km": 1211.5129834798763,
      "perigee_km": 1208.034685153425,
      "latitude_deg": 2.8070350652373874e-05,
      "longitude_deg": -103.8170581390028,
      "height_km": 1212.104858764391,
      "semi_major_axis_km": 7587.910834316651,
      "eccentricity": 0.0002292,
      "inclination_deg": 87.9002,
      "raan_deg": 334.6684,
      "arg_perigee_deg": 71.3035,
      "mean_anomaly_deg": 288.8343,
      "mean_motion_rev_day": 13.1346781
    },
    {
      "epoch": "2026-04-06T05:05:53.298816Z",
      "apogee_km": 1211.4987684535727,
      "perigee_km": 1208.045511004083,
      "latitude_deg": -3.831923002092435e-05,
      "longitude_deg": 63.58340799146874,
      "height_km": 1212.0966226626467,
      "semi_major_axis_km": 7587.9091397288275,
      "eccentricity": 0.00022755,
      "inclination_deg": 87.9001,
      "raan_deg": 334.5624,
      "arg_perigee_deg": 70.9317,
      "mean_anomaly_deg": 289.2058,
      "mean_motion_rev_day": 13.1346825
    },
    {
      "epoch": "2026-04-07T08:31:19.680096Z",
      "apogee_km": 1211.4658714149018,
      "perigee_km": 1208.0754425156165,
      "latitude_deg": 1.9074010579804123e-05,
      "longitude_deg": 10.870421643525873,
      "height_km": 1212.067135361171,
      "semi_major_axis_km": 7587.907656965259,
      "eccentricity": 0.00022341,
      "inclination_deg": 87.8999,
      "raan_deg": 334.3356,
      "arg_perigee_deg": 69.5542,
      "mean_anomaly_deg": 290.5827,
      "mean_motion_rev_day": 13.13468635
    },
    {
      "epoch": "2026-04-07T15:50:06.841824Z",
      "apogee_km": 1211.4647099480562,
      "perigee_km": 1208.086571240463,
      "latitude_deg": -2.8635709840226477e-05,
      "longitude_deg": -99.1868265552589,
      "height_km": 1212.0628291267494,
      "semi_major_axis_km": 7587.912640594259,
      "eccentricity": 0.0002226,
      "inclination_deg": 87.8999,
      "raan_deg": 334.2752,
      "arg_perigee_deg": 69.1386,
      "mean_anomaly_deg": 290.9981,
      "mean_motion_rev_day": 13.13467341
    },
    {
      "epoch": "2026-04-08T13:46:27.919200Z",
      "apogee_km": 1211.4481809293802,
      "perigee_km": 1208.0952358293225,
      "latitude_deg": -5.1827785245486226e-05,
      "longitude_deg": -69.35716301292192,
      "height_km": 1212.0465125182784,
      "semi_major_axis_km": 7587.908708379351,
      "eccentricity": 0.00022094,
      "inclination_deg": 87.8999,
      "raan_deg": 334.0937,
      "arg_perigee_deg": 68.5186,
      "mean_anomaly_deg": 291.6178,
      "mean_motion_rev_day": 13.13468362
    },
    {
      "epoch": "2026-04-09T04:24:01.973952Z",
      "apogee_km": 1211.4564805960708,
      "perigee_km": 1208.0862352198228,
      "latitude_deg": 7.988109160064322e-05,
      "longitude_deg": 70.52907147989954,
      "height_km": 1212.0342376598894,
      "semi_major_axis_km": 7587.908357907947,
      "eccentricity": 0.00022208,
      "inclination_deg": 87.8996,
      "raan_deg": 333.9725,
      "arg_perigee_deg": 68.1996,
      "mean_anomaly_deg": 291.937,
      "mean_motion_rev_day": 13.13468453
    },
    {
      "epoch": "2026-04-10T09:39:10.049760Z",
      "apogee_km": 1211.4455585770575,
      "perigee_km": 1208.0962560267735,
      "latitude_deg": 4.2215761231055e-05,
      "longitude_deg": -9.698129372604768,
      "height_km": 1212.0189541677612,
      "semi_major_axis_km": 7587.907907301915,
      "eccentricity": 0.0002207,
      "inclination_deg": 87.8992,
      "raan_deg": 333.7303,
      "arg_perigee_deg": 67.5065,
      "mean_anomaly_deg": 292.6298,
      "mean_motion_rev_day": 13.1346857
    }
  ]
}